{"type": "FeatureCollection", "features": [ {"type": "Feature", "properties": {"norad_id": 66052, "name": "HRC MONOBLOCK CAMERA", "group": "stations", "lat": 33.381211570383556, "lon": -80.54661174095911, "alt_km": 398.6753717745196, "timestamp": "2025-12-14T20:40:30.538855+00:00", "meta": {"OBJECT_NAME": "HRC MONOBLOCK CAMERA", "OBJECT_ID": "1998-067XR", "EPOCH": "2025-12-14T07:45:02.257920", "MEAN_MOTION": 15.54276415, "ECCENTRICITY": 0.00030787, "INCLINATION": 51.6291, "RA_OF_ASC_NODE": 133.6119, "ARG_OF_PERICENTER": 191.3375, "MEAN_ANOMALY": 168.7547, "EPHEMERIS_TYPE": 0, "CLASSIFICATION_TYPE": "U", "NORAD_CAT_ID": 66052, "ELEMENT_SET_NO": 999, "REV_AT_EPOCH": 908, "BSTAR": 0.00060594703, "MEAN_MOTION_DOT": 0.00040056, "MEAN_MOTION_DDOT": 0}, "tle": {"line1": "1 66052U 98067XR  25348.32294280  .00040056  00000+0  60595-3 0  9993", "line2": "2 66052  51.6291 133.6119 0003078 191.3375 168.7547 15.54276415  9081"}}, "geometry": {"type": "Point", "coordinates": [-80.54661174095911, 33.381211570383556]}}, {"type": "Feature", "properties": {"norad_id": 66174, "name": "HTV-X1", "group": "stations", "lat": -5.730629876017024, "lon": 127.41100456297224, "alt_km": 419.8586707497325, "timestamp": "2025-12-14T20:40:30.538865+00:00", "meta": {"OBJECT_NAME": "HTV-X1", "OBJECT_ID": "2025-241A", "EPOCH": "2025-12-14T05:13:44.174496", "MEAN_MOTION": 15.49586484, "ECCENTRICITY": 0.00032642, "INCLINATION": 51.6305, "RA_OF_ASC_NODE": 135.1599, "ARG_OF_PERICENTER": 246.9077, "MEAN_ANOMALY": 113.1568, "EPHEMERIS_TYPE": 0, "CLASSIFICATION_TYPE": "U", "NORAD_CAT_ID": 66174, "ELEMENT_SET_NO": 999, "REV_AT_EPOCH": 51, "BSTAR": 0.00022198491, "MEAN_MOTION_DOT": 0.00012052, "MEAN_MOTION_DDOT": 0}, "tle": {"line1": "1 66174U 25241A   25348.21787239  .00012052  00000+0  22198-3 0  9993", "line2": "2 66174  51.6305 135.1599 0003264 246.9077 113.1568 15.49586484   514"}}, "geometry": {"type": "Point", "coordinates": [127.41100456297224, -5.730629876017024]}}, {"type": "Feature", "properties": {"norad_id": 66515, "name": "SZ-21 MODULE", "group": "stations", "lat": 34.97508039235211, "lon": 130.73667276833763, "alt_km": 378.1001110850084, "timestamp": "2025-12-14T20:40:30.538876+00:00", "meta": {"OBJECT_NAME": "SZ-21 MODULE", "OBJECT_ID": "2025-246C", "EPOCH": "2025-12-14T06:21:31.494240", "MEAN_MOTION": 15.62581213, "ECCENTRICITY": 0.00062526, "INCLINATION": 41.4775, "RA_OF_ASC_NODE": 6.7415, "ARG_OF_PERICENTER": 268.458, "MEAN_ANOMALY": 91.5544, "EPHEMERIS_TYPE": 0, "CLASSIFICATION_TYPE": "U", "NORAD_CAT_ID": 66515, "ELEMENT_SET_NO": 999, "REV_AT_EPOCH": 468, "BSTAR": 0.00032565972, "MEAN_MOTION_DOT": 0.0002972, "MEAN_MOTION_DDOT": 0}, "tle": {"line1": "1 66515U 25246C   25348.26494785  .00029720  00000+0  32566-3 0  9993", "line2": "2 66515  41.4775   6.7415 0006252 268.4580  91.5544 15.62581213  4684"}}, "geometry": {"type": "Point", "coordinates": [130.73667276833763, 34.97508039235211]}}, {"type": "Feature", "properties": {"norad_id": 66645, "name": "SHENZHOU-22", "group": "stations", "lat": -4.239418656922387, "lon": -171.35938786840507, "alt_km": 393.9144367841009, "timestamp": "2025-12-14T20:40:30.538888+00:00", "meta": {"OBJECT_NAME": "SHENZHOU-22", "OBJECT_ID": "2025-272A", "EPOCH": "2025-12-14T07:34:58.944000", "MEAN_MOTION": 15.59258965, "ECCENTRICITY": 0.00080649, "INCLINATION": 41.4685, "RA_OF_ASC_NODE": 7.139, "ARG_OF_PERICENTER": 44.1445, "MEAN_ANOMALY": 316.0035, "EPHEMERIS_TYPE": 0, "CLASSIFICATION_TYPE": "U", "NORAD_CAT_ID": 66645, "ELEMENT_SET_NO": 999, "REV_AT_EPOCH": 26357, "BSTAR": 0.00032167744, "MEAN_MOTION_DOT": 0.00025793, "MEAN_MOTION_DDOT": 0}, "tle": {"line1": "1 66645U 25272A   25348.31596000  .00025793  00000+0  32168-3 0  9999", "line2": "2 66645  41.4685   7.1390 0008064  44.1445 316.0035 15.59258965263573"}}, "geometry": {"type": "Point", "coordinates": [-171.35938786840507, -4.239418656922387]}}, {"type": "Feature", "properties": {"norad_id": 66664, "name": "SOYUZ-MS 28", "group": "stations", "lat": -5.730628210519522, "lon": 127.41100589815937, "alt_km": 419.8586706322685, "timestamp": "2025-12-14T20:40:30.538898+00:00", "meta": {"OBJECT_NAME": "SOYUZ-MS 28", "OBJECT_ID": "2025-275A", "EPOCH": "2025-12-14T05:13:44.174496", "MEAN_MOTION": 15.49586484, "ECCENTRICITY": 0.00032642, "INCLINATION": 51.6305, "RA_OF_ASC_NODE": 135.1599, "ARG_OF_PERICENTER": 246.9077, "MEAN_ANOMALY": 113.1568, "EPHEMERIS_TYPE": 0, "CLASSIFICATION_TYPE": "U", "NORAD_CAT_ID": 66664, "ELEMENT_SET_NO": 999, "REV_AT_EPOCH": 128, "BSTAR": 0.00022198491, "MEAN_MOTION_DOT": 0.00012052, "MEAN_MOTION_DDOT": 0}, "tle": {"line1": "1 66664U 25275A   25348.21787239  .00012052  00000+0  22198-3 0  9994", "line2": "2 66664  51.6305 135.1599 0003264 246.9077 113.1568 15.49586484  1283"}}, "geometry": {"type": "Point", "coordinates": [127.41100589815937, -5.730628210519522]}}, {"type": "Feature", "properties": {"norad_id": 66906, "name": "1998-067XS", "group": "stations", "lat": 23.30415522444505, "lon": 151.8484082583832, "alt_km": 414.30248287291124, "timestamp": "2025-12-14T20:40:30.538908+00:00", "meta": {"OBJECT_NAME": "1998-067XS", "OBJECT_ID": "1998-067XS", "EPOCH": "2025-12-14T03:31:53.110272", "MEAN_MOTION": 15.5066238, "ECCENTRICITY": 0.00034792, "INCLINATION": 51.6304, "RA_OF_ASC_NODE": 135.4381, "ARG_OF_PERICENTER": 209.6903, "MEAN_ANOMALY": 150.3889, "EPHEMERIS_TYPE": 0, "CLASSIFICATION_TYPE": "U", "NORAD_CAT_ID": 66906, "ELEMENT_SET_NO": 999, "REV_AT_EPOCH": 183, "BSTAR": 0.00050586866, "MEAN_MOTION_DOT": 0.0002921, "MEAN_MOTION_DDOT": 0}, "tle": {"line1": "1 66906U 98067XS  25348.14714248  .00029210  00000+0  50587-3 0  9991", "line2": "2 66906  51.6304 135.4381 0003479 209.6903 150.3889 15.50662380  1837"}}, "geometry": {"type": "Point", "coordinates": [151.8484082583832, 23.30415522444505]}}, {"type": "Feature", "properties": {"norad_id": 66907, "name": "1998-067XT", "group": "stations", "lat": 38.75520087313761, "lon": 171.34128338939468, "alt_km": 409.23187241099185, "timestamp": "2025-12-14T20:40:30.538918+00:00", "meta": {"OBJECT_NAME": "1998-067XT", "OBJECT_ID": "1998-067XT", "EPOCH": "2025-12-14T03:26:43.609056", "MEAN_MOTION": 15.5166553, "ECCENTRICITY": 0.0004243, "INCLINATION": 51.6301, "RA_OF_ASC_NODE": 135.4146, "ARG_OF_PERICENTER": 234.9835, "MEAN_ANOMALY": 125.0757, "EPHEMERIS_TYPE": 0, "CLASSIFICATION_TYPE": "U", "NORAD_CAT_ID": 66907, "ELEMENT_SET_NO": 999, "REV_AT_EPOCH": 183, "BSTAR": 0.0011319513, "MEAN_MOTION_DOT": 0.00068696, "MEAN_MOTION_DDOT": 0}, "tle": {"line1": "1 66907U 98067XT  25348.14356029  .00068696  00000+0  11320-2 0  9993", "line2": "2 66907  51.6301 135.4146 0004243 234.9835 125.0757 15.51665530  1833"}}, "geometry": {"type": "Point", "coordinates": [171.34128338939468, 38.75520087313761]}}, {"type": "Feature", "properties": {"norad_id": 66908, "name": "1998-067XU", "group": "stations", "lat": 40.249225098589065, "lon": 173.96404381672414, "alt_km": 408.7674632203234, "timestamp": "2025-12-14T20:40:30.538928+00:00", "meta": {"OBJECT_NAME": "1998-067XU", "OBJECT_ID": "1998-067XU", "EPOCH": "2025-12-14T03:26:08.586816", "MEAN_MOTION": 15.51757064, "ECCENTRICITY": 0.00043369, "INCLINATION": 51.6297, "RA_OF_ASC_NODE": 135.4117, "ARG_OF_PERICENTER": 234.6858, "MEAN_ANOMALY": 125.3727, "EPHEMERIS_TYPE": 0, "CLASSIFICATION_TYPE": "U", "NORAD_CAT_ID": 66908, "ELEMENT_SET_NO": 999, "REV_AT_EPOCH": 183, "BSTAR": 0.0012622899, "MEAN_MOTION_DOT": 0.00076995, "MEAN_MOTION_DDOT": 0}, "tle": {"line1": "1 66908U 98067XU  25348.14315494  .00076995  00000+0  12623-2 0  9993", "line2": "2 66908  51.6297 135.4117 0004336 234.6858 125.3727 15.51757064  1835"}}, "geometry": {"type": "Point", "coordinates": [173.96404381672414, 40.249225098589065]}}, {"type": "Feature", "properties": {"norad_id": 66909, "name": "SILVERSAT", "group": "stations", "lat": 41.89642068828963, "lon": 177.13436488973528, "alt_km": 408.1793533202708, "timestamp": "2025-12-14T20:40:30.538938+00:00", "meta": {"OBJECT_NAME": "SILVERSAT", "OBJECT_ID": "1998-067XV", "EPOCH": "2025-12-13T19:41:48.869664", "MEAN_MOTION": 15.51822369, "ECCENTRICITY": 0.00043322, "INCLINATION": 51.6299, "RA_OF_ASC_NODE": 137.0079, "ARG_OF_PERICENTER": 234.1355, "MEAN_ANOMALY": 125.9233, "EPHEMERIS_TYPE": 0, "CLASSIFICATION_TYPE": "U", "NORAD_CAT_ID": 66909, "ELEMENT_SET_NO": 999, "REV_AT_EPOCH": 178, "BSTAR": 0.0012407437, "MEAN_MOTION_DOT": 0.0007584, "MEAN_MOTION_DDOT": 0}, "tle": {"line1": "1 66909U 98067XV  25347.82070451  .00075840  00000+0  12407-2 0  9997", "line2": "2 66909  51.6299 137.0079 0004332 234.1355 125.9233 15.51822369  1789"}}, "geometry": {"type": "Point", "coordinates": [177.13436488973528, 41.89642068828963]}}, {"type": "Feature", "properties": {"norad_id": 66910, "name": "1998-067XW", "group": "stations", "lat": 46.421801016331564, "lon": -171.81171738438545, "alt_km": 407.28175563539844, "timestamp": "2025-12-14T20:40:30.538948+00:00", "meta": {"OBJECT_NAME": "1998-067XW", "OBJECT_ID": "1998-067XW", "EPOCH": "2025-12-14T03:23:10.619232", "MEAN_MOTION": 15.51967036, "ECCENTRICITY": 0.00049581, "INCLINATION": 51.6295, "RA_OF_ASC_NODE": 135.3982, "ARG_OF_PERICENTER": 216.2881, "MEAN_ANOMALY": 143.7773, "EPHEMERIS_TYPE": 0, "CLASSIFICATION_TYPE": "U", "NORAD_CAT_ID": 66910, "ELEMENT_SET_NO": 999, "REV_AT_EPOCH": 183, "BSTAR": 0.0010799417, "MEAN_MOTION_DOT": 0.00066221, "MEAN_MOTION_DDOT": 0}, "tle": {"line1": "1 66910U 98067XW  25348.14109513  .00066221  00000+0  10799-2 0  9992", "line2": "2 66910  51.6295 135.3982 0004958 216.2881 143.7773 15.51967036  1834"}}, "geometry": {"type": "Point", "coordinates": [-171.81171738438545, 46.421801016331564]}}]}